[Satellite]
VERSION=1.1
NAME=SUMBANDILA (SO-67)
NICKNAME=SO-67
TLE1=1 35870U 09049F   11060.12711242  .00000828  00000-0  39913-4 0  6054
TLE2=2 35870  97.2964 106.9692 0001561 294.0103 149.8174 15.21376401 80515
